{"type": "FeatureCollection", "features": [ {"type": "Feature", "properties": {"norad_id": 65942, "name": "BOTAN", "group": "stations", "lat": 9.69071468103938, "lon": -172.16922684377317, "alt_km": 387.51954421652135, "timestamp": "2025-12-04T15:47:52.889000+00:00", "meta": {"OBJECT_NAME": "BOTAN", "OBJECT_ID": "1998-067XP", "EPOCH": "2025-12-04T06:31:29.212032", "MEAN_MOTION": 15.60670487, "ECCENTRICITY": 0.00041989, "INCLINATION": 51.6276, "RA_OF_ASC_NODE": 182.0008, "ARG_OF_PERICENTER": 178.1888, "MEAN_ANOMALY": 181.9121, "EPHEMERIS_TYPE": 0, "CLASSIFICATION_TYPE": "U", "NORAD_CAT_ID": 65942, "ELEMENT_SET_NO": 999, "REV_AT_EPOCH": 854, "BSTAR": 0.0018696572, "MEAN_MOTION_DOT": 0.00160832, "MEAN_MOTION_DDOT": 0}, "tle": {"line1": "1 65942U 98067XP  25338.27186588  .00160832  00000+0  18697-2 0  9994", "line2": "2 65942  51.6276 182.0008 0004198 178.1888 181.9121 15.60670487  8541"}}, "geometry": {"type": "Point", "coordinates": [-172.16922684377317, 9.69071468103938]}}, {"type": "Feature", "properties": {"norad_id": 65943, "name": "E-KAGAKU-1", "group": "stations", "lat": 34.670362965355146, "lon": -32.68065632040386, "alt_km": 386.7573445435719, "timestamp": "2025-12-04T15:47:52.889010+00:00", "meta": {"OBJECT_NAME": "E-KAGAKU-1", "OBJECT_ID": "1998-067XQ", "EPOCH": "2025-12-02T21:39:34.941600", "MEAN_MOTION": 15.57714998, "ECCENTRICITY": 0.00035202, "INCLINATION": 51.6296, "RA_OF_ASC_NODE": 189.358, "ARG_OF_PERICENTER": 147.4331, "MEAN_ANOMALY": 212.6879, "EPHEMERIS_TYPE": 0, "CLASSIFICATION_TYPE": "U", "NORAD_CAT_ID": 65943, "ELEMENT_SET_NO": 999, "REV_AT_EPOCH": 832, "BSTAR": 0.00096701912, "MEAN_MOTION_DOT": 0.00073283, "MEAN_MOTION_DDOT": 0}, "tle": {"line1": "1 65943U 98067XQ  25336.90248775  .00073283  00000+0  96702-3 0  9997", "line2": "2 65943  51.6296 189.3580 0003520 147.4331 212.6879 15.57714998  8329"}}, "geometry": {"type": "Point", "coordinates": [-32.68065632040386, 34.670362965355146]}}, {"type": "Feature", "properties": {"norad_id": 66052, "name": "HRC MONOBLOCK CAMERA", "group": "stations", "lat": -51.02262252909045, "lon": 80.08229973704334, "alt_km": 412.53951912239427, "timestamp": "2025-12-04T15:47:52.889020+00:00", "meta": {"OBJECT_NAME": "HRC MONOBLOCK CAMERA", "OBJECT_ID": "1998-067XR", "EPOCH": "2025-12-04T06:57:07.350624", "MEAN_MOTION": 15.53318158, "ECCENTRICITY": 0.00043168, "INCLINATION": 51.6291, "RA_OF_ASC_NODE": 183.6143, "ARG_OF_PERICENTER": 150.6108, "MEAN_ANOMALY": 209.5126, "EPHEMERIS_TYPE": 0, "CLASSIFICATION_TYPE": "U", "NORAD_CAT_ID": 66052, "ELEMENT_SET_NO": 999, "REV_AT_EPOCH": 752, "BSTAR": 0.00094005193, "MEAN_MOTION_DOT": 0.00060423, "MEAN_MOTION_DDOT": 0}, "tle": {"line1": "1 66052U 98067XR  25338.28966841  .00060423  00000+0  94005-3 0  9999", "line2": "2 66052  51.6291 183.6143 0004316 150.6108 209.5126 15.53318158  7525"}}, "geometry": {"type": "Point", "coordinates": [80.08229973704334, -51.02262252909045]}}, {"type": "Feature", "properties": {"norad_id": 66174, "name": "HTV-X1", "group": "stations", "lat": -50.27242728767169, "lon": 110.04981216559935, "alt_km": 422.80950191973807, "timestamp": "2025-12-04T15:47:52.889033+00:00", "meta": {"OBJECT_NAME": "HTV-X1", "OBJECT_ID": "2025-241A", "EPOCH": "2025-12-04T02:12:18.455328", "MEAN_MOTION": 15.49293095, "ECCENTRICITY": 0.00036281, "INCLINATION": 51.6302, "RA_OF_ASC_NODE": 185.2932, "ARG_OF_PERICENTER": 200.9086, "MEAN_ANOMALY": 159.1754, "EPHEMERIS_TYPE": 0, "CLASSIFICATION_TYPE": "U", "NORAD_CAT_ID": 66174, "ELEMENT_SET_NO": 999, "REV_AT_EPOCH": 51, "BSTAR": 0.00029177423, "MEAN_MOTION_DOT": 0.00015824, "MEAN_MOTION_DDOT": 0}, "tle": {"line1": "1 66174U 25241A   25338.09188027  .00015824  00000+0  29177-3 0  9992", "line2": "2 66174  51.6302 185.2932 0003628 200.9086 159.1754 15.49293095   512"}}, "geometry": {"type": "Point", "coordinates": [110.04981216559935, -50.27242728767169]}}, {"type": "Feature", "properties": {"norad_id": 66515, "name": "SZ-21 MODULE", "group": "stations", "lat": -40.76759579099906, "lon": -37.25349558164059, "alt_km": 382.5445554059097, "timestamp": "2025-12-04T15:47:52.889044+00:00", "meta": {"OBJECT_NAME": "SZ-21 MODULE", "OBJECT_ID": "2025-246C", "EPOCH": "2025-12-03T07:59:41.917920", "MEAN_MOTION": 15.61790567, "ECCENTRICITY": 0.0005832, "INCLINATION": 41.4771, "RA_OF_ASC_NODE": 73.3983, "ARG_OF_PERICENTER": 205.8085, "MEAN_ANOMALY": 154.2464, "EPHEMERIS_TYPE": 0, "CLASSIFICATION_TYPE": "U", "NORAD_CAT_ID": 66515, "ELEMENT_SET_NO": 999, "REV_AT_EPOCH": 297, "BSTAR": 0.00036812, "MEAN_MOTION_DOT": 0.0003262, "MEAN_MOTION_DDOT": 0}, "tle": {"line1": "1 66515U 25246C   25337.33312405  .00032620  00000+0  36812-3 0  9998", "line2": "2 66515  41.4771  73.3983 0005832 205.8085 154.2464 15.61790567  2979"}}, "geometry": {"type": "Point", "coordinates": [-37.25349558164059, -40.76759579099906]}}, {"type": "Feature", "properties": {"norad_id": 66645, "name": "SHENZHOU-22", "group": "stations", "lat": 41.40934907371351, "lon": 152.77403642321764, "alt_km": 388.03136171617734, "timestamp": "2025-12-04T15:47:52.889054+00:00", "meta": {"OBJECT_NAME": "SHENZHOU-22", "OBJECT_ID": "2025-272A", "EPOCH": "2025-12-04T07:44:04.873632", "MEAN_MOTION": 15.58643052, "ECCENTRICITY": 0.00099613, "INCLINATION": 41.4682, "RA_OF_ASC_NODE": 67.7893, "ARG_OF_PERICENTER": 326.0847, "MEAN_ANOMALY": 33.9353, "EPHEMERIS_TYPE": 0, "CLASSIFICATION_TYPE": "U", "NORAD_CAT_ID": 66645, "ELEMENT_SET_NO": 999, "REV_AT_EPOCH": 26274, "BSTAR": 0.00047338698, "MEAN_MOTION_DOT": 0.00037313, "MEAN_MOTION_DDOT": 0}, "tle": {"line1": "1 66645U 25272A   25338.32227863  .00037313  00000+0  47339-3 0  9994", "line2": "2 66645  41.4682  67.7893 0009961 326.0847  33.9353 15.58643052262745"}}, "geometry": {"type": "Point", "coordinates": [152.77403642321764, 41.40934907371351]}}, {"type": "Feature", "properties": {"norad_id": 66646, "name": "CZ-2F R/B", "group": "stations", "lat": -31.505465410992663, "lon": -74.38426779167702, "alt_km": 196.51737908968335, "timestamp": "2025-12-04T15:47:52.889065+00:00", "meta": {"OBJECT_NAME": "CZ-2F R/B", "OBJECT_ID": "2025-272B", "EPOCH": "2025-11-26T11:17:54.506400", "MEAN_MOTION": 16.01945612, "ECCENTRICITY": 0.01210796, "INCLINATION": 41.4431, "RA_OF_ASC_NODE": 114.9009, "ARG_OF_PERICENTER": 133.7676, "MEAN_ANOMALY": 227.3272, "EPHEMERIS_TYPE": 0, "CLASSIFICATION_TYPE": "U", "NORAD_CAT_ID": 66646, "ELEMENT_SET_NO": 999, "REV_AT_EPOCH": 21, "BSTAR": 0.00029319366, "MEAN_MOTION_DOT": 0.00449059, "MEAN_MOTION_DDOT": 7.567612e-06}, "tle": {"line1": "1 66646U 25272B   25330.47076975  .00449059  75676-5  29319-3 0  9998", "line2": "2 66646  41.4431 114.9009 0121079 133.7676 227.3272 16.01945612   217"}}, "geometry": {"type": "Point", "coordinates": [-74.38426779167702, -31.505465410992663]}}, {"type": "Feature", "properties": {"norad_id": 66664, "name": "SOYUZ-MS 28", "group": "stations", "lat": -50.27242637259108, "lon": 110.04981804442228, "alt_km": 422.8095020571118, "timestamp": "2025-12-04T15:47:52.889093+00:00", "meta": {"OBJECT_NAME": "SOYUZ-MS 28", "OBJECT_ID": "2025-275A", "EPOCH": "2025-12-04T02:12:18.455328", "MEAN_MOTION": 15.49293095, "ECCENTRICITY": 0.00036281, "INCLINATION": 51.6302, "RA_OF_ASC_NODE": 185.2932, "ARG_OF_PERICENTER": 200.9086, "MEAN_ANOMALY": 159.1754, "EPHEMERIS_TYPE": 0, "CLASSIFICATION_TYPE": "U", "NORAD_CAT_ID": 66664, "ELEMENT_SET_NO": 999, "REV_AT_EPOCH": 110, "BSTAR": 0.00029177423, "MEAN_MOTION_DOT": 0.00015824, "MEAN_MOTION_DDOT": 0}, "tle": {"line1": "1 66664U 25275A   25338.09188027  .00015824  00000+0  29177-3 0  9993", "line2": "2 66664  51.6302 185.2932 0003628 200.9086 159.1754 15.49293095  1102"}}, "geometry": {"type": "Point", "coordinates": [110.04981804442228, -50.27242637259108]}}]}